COMMENT,ORIGINATOR,NORAD_CAT_ID,OBJECT_NAME,OBJECT_TYPE,CLASSIFICATION_TYPE,INTLDES,EPOCH,EPOCH_MICROSECONDS,MEAN_MOTION,ECCENTRICITY,INCLINATION,RA_OF_ASC_NODE,ARG_OF_PERICENTER,MEAN_ANOMALY,EPHEMERIS_TYPE,ELEMENT_SET_NO,REV_AT_EPOCH,BSTAR,MEAN_MOTION_DOT,MEAN_MOTION_DDOT,FILE,TLE_LINE0,TLE_LINE1,TLE_LINE2,OBJECT_ID,OBJECT_NUMBER,SEMIMAJOR_AXIS,PERIOD,APOGEE,PERIGEE,DECAYED,date
GENERATED VIA SPACETRACK.ORG API,18 SPCS,46300,SPACEBEE-21,PAYLOAD,U,20061AE,2023/3/1 4:07,584000,15.3823062,0.0001894,97.4171,135.6997,245.2397,114.8651,0,999,13766,0.0029404,0.00112153,0,3848202,0 SPACEBEE-21,1 46300U 20061AE  23060.17168500  .00112153  00000-0  29404-2 0  9995,2 46300  97.4171 135.6997 0001894 245.2397 114.8651 15.38230620137667,2020-061AE,46300,6829.478,93.614,452.637,450.05,1,
GENERATED VIA SPACETRACK.ORG API,18 SPCS,46300,SPACEBEE-21,PAYLOAD,U,20061AE,2023/3/1 15:02,56416,15.38309586,0.0001887,97.4171,136.1606,245.9393,114.1654,0,999,13773,0.0024082,0.00091829,0,3848676,0 SPACEBEE-21,1 46300U 20061AE  23060.62703769  .00091829  00000-0  24082-2 0  9990,2 46300  97.4171 136.1606 0001887 245.9393 114.1654 15.38309586137737,2020-061AE,46300,6829.245,93.609,452.398,449.821,1,
GENERATED VIA SPACETRACK.ORG API,18 SPCS,46300,SPACEBEE-21,PAYLOAD,U,20061AE,2023/3/1 15:02,56416,15.38309586,0.0001887,97.4171,136.1606,245.9393,114.1654,0,999,13773,0.0024082,0.00091829,0,3848834,0 SPACEBEE-21,1 46300U 20061AE  23060.62703769  .00091829  00000-0  24082-2 0  9990,2 46300  97.4171 136.1606 0001887 245.9393 114.1654 15.38309586137737,2020-061AE,46300,6829.245,93.609,452.398,449.821,1,
GENERATED VIA SPACETRACK.ORG API,18 SPCS,46300,SPACEBEE-21,PAYLOAD,U,20061AE,2023/3/2 3:32,5408,15.38419168,0.0001915,97.4171,136.6862,242.3097,117.7954,0,999,13781,0.0024768,0.00094821,0,3848983,0 SPACEBEE-21,1 46300U 20061AE  23061.14740747  .00094821  00000-0  24768-2 0  9991,2 46300  97.4171 136.6862 0001915 242.3097 117.7954 15.38419168137819,2020-061AE,46300,6828.92,93.603,452.093,449.478,1,
GENERATED VIA SPACETRACK.ORG API,18 SPCS,46300,SPACEBEE-21,PAYLOAD,U,20061AE,2023/3/2 16:01,967552,15.38520811,0.0001857,97.417,137.2129,243.3228,116.7827,0,999,13789,0.0026741,0.00102826,0,3849487,0 SPACEBEE-21,1 46300U 20061AE  23061.66774268  .00102826  00000-0  26741-2 0  9991,2 46300  97.4170 137.2129 0001857 243.3228 116.7827 15.38520811137897,2020-061AE,46300,6828.62,93.596,451.753,449.217,1,
GENERATED VIA SPACETRACK.ORG API,18 SPCS,46300,SPACEBEE-21,PAYLOAD,U,20061AE,2023/3/3 4:30,385568,15.38663007,0.000193,97.4169,137.739,242.342,117.7629,0,999,13797,0.0036106,0.00140194,0,3849940,0 SPACEBEE-21,1 46300U 20061AE  23062.18803687  .00140194  00000-0  36106-2 0  9993,2 46300  97.4169 137.7390 0001930 242.3420 117.7629 15.38663007137970,2020-061AE,46300,6828.199,93.588,451.382,448.746,1,
GENERATED VIA SPACETRACK.ORG API,18 SPCS,46300,SPACEBEE-21,PAYLOAD,U,20061AE,2023/3/3 4:30,385568,15.38663007,0.000193,97.4169,137.739,242.342,117.7629,0,999,13797,0.0036106,0.00140194,0,3850163,0 SPACEBEE-21,1 46300U 20061AE  23062.18803687  .00140194  00000-0  36106-2 0  9993,2 46300  97.4169 137.7390 0001930 242.3420 117.7629 15.38663007137970,2020-061AE,46300,6828.199,93.588,451.382,448.746,1,
GENERATED VIA SPACETRACK.ORG API,18 SPCS,46300,SPACEBEE-21,PAYLOAD,U,20061AE,2023/3/4 3:55,964736,15.38934486,0.0002062,97.4168,138.7257,242.0911,118.0126,0,999,13812,0.0038939,0.00152794,0,3851072,0 SPACEBEE-21,1 46300U 20061AE  23063.16346024  .00152794  00000-0  38939-2 0  9994,2 46300  97.4168 138.7257 0002062 242.0911 118.0126 15.38934486138127,2020-061AE,46300,6827.396,93.571,450.669,447.853,1,
GENERATED VIA SPACETRACK.ORG API,18 SPCS,46300,SPACEBEE-21,PAYLOAD,U,20061AE,2023/3/4 17:58,714080,15.39090687,0.0002072,97.4168,139.3181,242.1835,117.92,0,999,13821,0.0033225,0.00130645,0,3851350,0 SPACEBEE-21,1 46300U 20061AE  23063.74863095  .00130645  00000-0  33225-2 0  9994,2 46300  97.4168 139.3181 0002072 242.1835 117.9200 15.39090687138215,2020-061AE,46300,6826.934,93.562,450.213,447.384,1,
GENERATED VIA SPACETRACK.ORG API,18 SPCS,46300,SPACEBEE-21,PAYLOAD,U,20061AE,2023/3/4 22:38,427552,15.39145393,0.0002099,97.4169,139.5152,239.9464,120.1573,0,999,13824,0.0033963,0.00133843,0,3851298,0 SPACEBEE-21,1 46300U 20061AE  23063.94367393  .00133843  00000-0  33963-2 0  9998,2 46300  97.4169 139.5152 0002099 239.9464 120.1573 15.39145393138244,2020-061AE,46300,6826.772,93.558,450.07,447.204,1,
GENERATED VIA SPACETRACK.ORG API,18 SPCS,46300,SPACEBEE-21,PAYLOAD,U,20061AE,2023/3/5 4:53,386400,15.39231248,0.0002087,97.4167,139.7785,239.2616,120.8424,0,999,13828,0.0037099,0.0014687,0,3851887,0 SPACEBEE-21,1 46300U 20061AE  23064.20371975  .00146870  00000-0  37099-2 0  9997,2 46300  97.4167 139.7785 0002087 239.2616 120.8424 15.39231248138286,2020-061AE,46300,6826.518,93.553,449.808,446.959,1,
GENERATED VIA SPACETRACK.ORG API,18 SPCS,46300,SPACEBEE-21,PAYLOAD,U,20061AE,2023/3/5 4:53,386400,15.39231248,0.0002087,97.4167,139.7785,239.2616,120.8424,0,999,13828,0.0037099,0.0014687,0,3851939,0 SPACEBEE-21,1 46300U 20061AE  23064.20371975  .00146870  00000-0  37099-2 0  9997,2 46300  97.4167 139.7785 0002087 239.2616 120.8424 15.39231248138286,2020-061AE,46300,6826.518,93.553,449.808,446.959,1,
GENERATED VIA SPACETRACK.ORG API,18 SPCS,46300,SPACEBEE-21,PAYLOAD,U,20061AE,2023/3/5 17:22,151360,15.3937271,0.0002085,97.4163,140.3053,239.9426,120.1613,0,999,13836,0.0036043,0.00143279,0,3852256,0 SPACEBEE-21,1 46300U 20061AE  23064.72377490  .00143279  00000-0  36043-2 0  9990,2 46300  97.4163 140.3053 0002085 239.9426 120.1613 15.39372710138364,2020-061AE,46300,6826.1,93.545,449.388,446.542,1,
GENERATED VIA SPACETRACK.ORG API,18 SPCS,46300,SPACEBEE-21,PAYLOAD,U,20061AE,2023/3/6 4:17,191968,15.39535803,0.0002208,97.4161,140.7654,238.1919,121.9112,0,999,13843,0.0041274,0.00165441,0,3852491,0 SPACEBEE-21,1 46300U 20061AE  23065.17877537  .00165441  00000-0  41274-2 0  9994,2 46300  97.4161 140.7654 0002208 238.1919 121.9112 15.39535803138433,2020-061AE,46300,6825.618,93.535,448.99,445.976,1,
GENERATED VIA SPACETRACK.ORG API,18 SPCS,46300,SPACEBEE-21,PAYLOAD,U,20061AE,2023/3/6 15:12,793856,15.39655406,0.0002244,97.4157,141.2261,240.1958,119.9065,0,999,13850,0.0033233,0.00133152,0,3852977,0 SPACEBEE-21,1 46300U 20061AE  23065.63373604  .00133152  00000-0  33233-2 0  9991,2 46300  97.4157 141.2261 0002244 240.1958 119.9065 15.39655406138508,2020-061AE,46300,6825.265,93.527,448.661,445.598,1,
GENERATED VIA SPACETRACK.ORG API,18 SPCS,46300,SPACEBEE-21,PAYLOAD,U,20061AE,2023/3/6 15:12,793856,15.39655406,0.0002244,97.4157,141.2261,240.1958,119.9065,0,999,13850,0.0033233,0.00133152,0,3853141,0 SPACEBEE-21,1 46300U 20061AE  23065.63373604  .00133152  00000-0  33233-2 0  9991,2 46300  97.4157 141.2261 0002244 240.1958 119.9065 15.39655406138508,2020-061AE,46300,6825.265,93.527,448.661,445.598,1,
GENERATED VIA SPACETRACK.ORG API,18 SPCS,46300,SPACEBEE-21,PAYLOAD,U,20061AE,2023/3/7 3:41,338752,15.39834893,0.0002304,97.4155,141.752,238.2787,121.8234,0,999,13858,0.0038958,0.00157525,0,3853506,0 SPACEBEE-21,1 46300U 20061AE  23066.15363818  .00157525  00000-0  38958-2 0  9994,2 46300  97.4155 141.7520 0002304 238.2787 121.8234 15.39834893138581,2020-061AE,46300,6824.734,93.517,448.172,445.027,1,
GENERATED VIA SPACETRACK.ORG API,18 SPCS,46300,SPACEBEE-21,PAYLOAD,U,20061AE,2023/3/7 22:24,587552,15.40076894,0.0002342,97.4152,142.5424,242.3005,117.8004,0,999,13870,0.0036764,0.00149678,0,3854072,0 SPACEBEE-21,1 46300U 20061AE  23066.93338643  .00149678  00000-0  36764-2 0  9991,2 46300  97.4152 142.5424 0002342 242.3005 117.8004 15.40076894138706,2020-061AE,46300,6824.019,93.502,447.482,444.286,1,
GENERATED VIA SPACETRACK.ORG API,18 SPCS,46300,SPACEBEE-21,PAYLOAD,U,20061AE,2023/3/8 4:38,978144,15.40157376,0.0002393,97.4152,142.8061,240.674,119.4267,0,999,13874,0.0034168,0.00139282,0,3854666,0 SPACEBEE-21,1 46300U 20061AE  23067.19327521  .00139282  00000-0  34168-2 0  9999,2 46300  97.4152 142.8061 0002393 240.6740 119.4267 15.40157376138747,2020-061AE,46300,6823.781,93.497,447.279,444.014,1,
GENERATED VIA SPACETRACK.ORG API,18 SPCS,46300,SPACEBEE-21,PAYLOAD,U,20061AE,2023/3/8 4:38,978144,15.40157376,0.0002393,97.4152,142.8061,240.674,119.4267,0,999,13874,0.0034168,0.00139282,0,3855077,0 SPACEBEE-21,1 46300U 20061AE  23067.19327521  .00139282  00000-0  34168-2 0  9999,2 46300  97.4152 142.8061 0002393 240.6740 119.4267 15.40157376138747,2020-061AE,46300,6823.781,93.497,447.279,444.014,1,
GENERATED VIA SPACETRACK.ORG API,18 SPCS,46300,SPACEBEE-21,PAYLOAD,U,20061AE,2023/3/9 5:35,116704,15.40486515,0.0002541,97.4148,143.86,241.0448,119.0543,0,999,13890,0.0039663,0.00163981,0,3855361,0 SPACEBEE-21,1 46300U 20061AE  23068.23269811  .00163981  00000-0  39663-2 0  9990,2 46300  97.4148 143.8600 0002541 241.0448 119.0543 15.40486515138908,2020-061AE,46300,6822.809,93.477,446.408,442.941,1,
GENERATED VIA SPACETRACK.ORG API,18 SPCS,46300,SPACEBEE-21,PAYLOAD,U,20061AE,2023/3/9 18:03,513664,15.40681554,0.0002526,97.4147,144.3874,241.4268,118.6725,0,999,13898,0.0046991,0.00196372,0,3855843,0 SPACEBEE-21,1 46300U 20061AE  23068.75232076  .00196372  00000-0  46991-2 0  9992,2 46300  97.4147 144.3874 0002526 241.4268 118.6725 15.40681554138988,2020-061AE,46300,6822.234,93.465,445.822,442.375,1,
GENERATED VIA SPACETRACK.ORG API,18 SPCS,46300,SPACEBEE-21,PAYLOAD,U,20061AE,2023/3/9 21:10,452896,15.40724186,0.0002572,97.4145,144.5187,241.2112,118.8876,0,999,13900,0.0042905,0.00179138,0,3855951,0 SPACEBEE-21,1 46300U 20061AE  23068.88221589  .00179138  00000-0  42905-2 0  9995,2 46300  97.4145 144.5187 0002572 241.2112 118.8876 15.40724186139004,2020-061AE,46300,6822.108,93.463,445.727,442.218,1,
